     2.10           N: GPS NAV DATA                         RINEX VERSION / TYPE
teqc  2013Mar15     gpsops              20140527 00:23:14UTCPGM / RUN BY / DATE
Linux 2.4.21-27.ELsmp|Opteron|gcc -static|Linux x86_64|=+   COMMENT
GLPS                                    MARKER NAME         COMMENT
42005M002                               MARKER NUMBER       COMMENT
-33801.4662 -6377516.5323 -82154.3508                       COMMENT
                                                            COMMENT
This data is provided as a public service by NASA/JPL.      COMMENT
No warranty is expressed or implied regarding suitability   COMMENT
for use.  For further information, contact:                 COMMENT
Dave Stowers, NASA/JPL m/s 238-600                          COMMENT
4800 Oak Grove Drive, Pasadena CA 91109 USA                 COMMENT
                                                            END OF HEADER
12 14  5 26  4  0  0.0 2.073412761092D-04 2.501110429876D-12 0.000000000000D+00
    8.600000000000D+01-8.000000000000D+01 3.598007014291D-09 2.052359018408D+00
   -4.181638360023D-06 5.149338743649D-03 1.094490289688D-05 5.153624895096D+03
    1.008000000000D+05-9.685754776001D-08 2.529357623589D+00 2.980232238770D-08
    9.877451534246D-01 1.801250000000D+02 4.383958777708D-01-7.585673116591D-09
    5.607376426879D-11 0.000000000000D+00 1.794000000000D+03 0.000000000000D+00
    2.000000000000D+00 0.000000000000D+00-1.210719347000D-08 8.600000000000D+01
    9.675000000000D+04 4.000000000000D+00
 2 14  5 26  6  0  0.0 4.974612966180D-04 2.160049916711D-12 0.000000000000D+00
    2.700000000000D+01-2.393750000000D+01 5.593090117511D-09-1.486593945462D+00
   -1.134350895882D-06 1.355957891792D-02 4.300847649574D-06 5.153601892471D+03
    1.080000000000D+05 2.365559339523D-07-1.724040490509D+00-5.960464477539D-08
    9.389729495237D-01 2.810625000000D+02-2.422215971406D+00-8.478924609815D-09
   -1.250052069686D-11 0.000000000000D+00 1.794000000000D+03 0.000000000000D+00
    2.000000000000D+00 0.000000000000D+00-2.048909664154D-08 2.700000000000D+01
    1.008000000000D+05 4.000000000000D+00
 5 14  5 26  6  0  0.0-3.703152760863D-04 2.614797267597D-12 0.000000000000D+00
    7.800000000000D+01 6.625000000000D+00 4.794128266114D-09 8.737414265175D-01
    5.979090929031D-07 3.570378292352D-03 1.121684908867D-05 5.153604082108D+03
    1.080000000000D+05 9.313225746155D-09-6.560002885194D-01 2.980232238770D-08
    9.473847592008D-01 1.533125000000D+02 3.099216718131D-01-8.067478900021D-09
   -5.110927176346D-10 0.000000000000D+00 1.794000000000D+03 0.000000000000D+00
    2.000000000000D+00 0.000000000000D+00-1.024454832077D-08 7.800000000000D+01
    1.008000000000D+05 4.000000000000D+00
10 14  5 26  6  0  0.0-1.271064393222D-04-1.591615728103D-12 0.000000000000D+00
    3.200000000000D+01 9.187500000000D+00 4.899489797702D-09 1.093399209563D+00
    7.878988981247D-07 1.356361177750D-02 1.232512295246D-05 5.153741441727D+03
    1.080000000000D+05-1.713633537292D-07-6.387298998356D-01 1.322478055954D-07
    9.421971931750D-01 1.348750000000D+02 8.655630283458D-01-8.287845222020D-09
   -5.760954252583D-10 0.000000000000D+00 1.794000000000D+03 0.000000000000D+00
    2.000000000000D+00 0.000000000000D+00-2.793967723846D-09 3.200000000000D+01
    1.008000000000D+05 4.000000000000D+00
12 14  5 26  6  0  0.0 2.073589712381D-04 2.501110429876D-12 0.000000000000D+00
    9.200000000000D+01-8.800000000000D+01 3.452286658739D-09 3.102324961156D+00
   -4.516914486885D-06 5.148048745468D-03 1.053325831890D-05 5.153628152847D+03
    1.080000000000D+05-9.313225746155D-09 2.529303279108D+00-3.166496753693D-08
    9.877460779889D-01 1.910937500000D+02 4.386320995419D-01-7.487454739687D-09
    7.214586230761D-11 0.000000000000D+00 1.794000000000D+03 0.000000000000D+00
    2.000000000000D+00 0.000000000000D+00-1.210719347000D-08 9.200000000000D+01
    1.008000000000D+05 4.000000000000D+00
15 14  5 26  6  0  0.0-1.816237345338D-04-2.160049916711D-12 0.000000000000D+00
    6.400000000000D+01 1.125625000000D+02 4.969492713604D-09-6.594977555287D-01
    5.830079317093D-06 6.254543317482D-03 6.405636668205D-06 5.153700962067D+03
    1.080000000000D+05 1.229345798492D-07 3.575606905923D-01 1.117587089539D-08
    9.371078679499D-01 2.451562500000D+02 2.745475197548D-01-8.432494104370D-09
    1.082187934614D-10 0.000000000000D+00 1.794000000000D+03 0.000000000000D+00
    2.000000000000D+00 0.000000000000D+00-1.024454832077D-08 6.400000000000D+01
    1.008000000000D+05 4.000000000000D+00
17 14  5 26  6  0  0.0-9.620934724808D-05-3.069544618484D-12 0.000000000000D+00
    9.300000000000D+01 2.037500000000D+01 4.559832792481D-09 2.942786405152D-02
    9.983777999878D-07 9.288624627516D-03 8.737668395042D-06 5.153592266083D+03
    1.080000000000D+05-6.332993507385D-08-2.703958299288D+00 9.499490261078D-08
    9.688377740393D-01 2.197500000000D+02-2.098469808593D+00-8.089265521807D-09
    6.464554988949D-10 0.000000000000D+00 1.794000000000D+03 0.000000000000D+00
    2.000000000000D+00 0.000000000000D+00-1.024454832077D-08 9.300000000000D+01
    1.008000000000D+05 4.000000000000D+00
24 14  5 26  6  0  0.0-2.901349216700D-05-6.821210263297D-13 0.000000000000D+00
    6.700000000000D+01-4.165625000000D+01 4.696981362413D-09-1.921930898102D+00
   -2.080574631691D-06 2.079429104924D-03 1.659616827965D-06 5.153731407166D+03
    1.080000000000D+05-6.146728992462D-08 1.431360965747D+00-3.725290298462D-08
    9.565555775908D-01 3.463750000000D+02 3.475368037086D-01-8.430351157964D-09
   -1.600066649198D-10 0.000000000000D+00 1.794000000000D+03 0.000000000000D+00
    2.000000000000D+00 0.000000000000D+00 2.793967723846D-09 6.700000000000D+01
    1.008000000000D+05 4.000000000000D+00
26 14  5 26  6  0  0.0 6.709201261401D-05-1.193711796077D-11 0.000000000000D+00
    3.300000000000D+01 1.146250000000D+02 4.249105563731D-09-1.204671908335D+00
    6.265938282013D-06 2.135226759128D-02 5.589798092842D-06 5.153696910858D+03
    1.080000000000D+05 4.842877388000D-08 4.926012774947D-01 5.383044481277D-07
    9.752811645352D-01 2.805937500000D+02 1.285052427889D+00-8.198555788471D-09
    1.257195224370D-10 0.000000000000D+00 1.794000000000D+03 0.000000000000D+00
    2.000000000000D+00 0.000000000000D+00-6.053596735001D-09 3.300000000000D+01
    1.008000000000D+05 4.000000000000D+00
28 14  5 26  6  0  0.0 3.575873561203D-04 2.842170943040D-12 0.000000000000D+00
    1.070000000000D+02-1.010937500000D+02 3.626222475293D-09 8.668796034151D-01
   -5.271285772324D-06 1.912021462340D-02 1.117773354053D-05 5.153680721283D+03
    1.080000000000D+05-2.831220626831D-07 2.553628579989D+00-9.872019290924D-08
    9.868883866740D-01 1.818750000000D+02-1.715048307583D+00-7.912115285646D-09
   -3.714440435639D-11 0.000000000000D+00 1.794000000000D+03 0.000000000000D+00
    2.000000000000D+00 0.000000000000D+00-1.071020960808D-08 1.070000000000D+02
    1.008000000000D+05 4.000000000000D+00
25 14  5 26  6  0  0.0 2.430519089103D-05 4.547473508865D-13 0.000000000000D+00
    3.400000000000D+01-9.187500000000D+01 3.758727994680D-09 2.335182896255D+00
   -4.727393388748D-06 3.629484213889D-03 1.019239425659D-05 5.153615308762D+03
    1.080000000000D+05-3.911554813385D-08 2.486900408401D+00-3.911554813385D-08
    9.764255365915D-01 1.907500000000D+02 6.810224650564D-01-7.714964216370D-09
    2.535819912792D-11 0.000000000000D+00 1.794000000000D+03 0.000000000000D+00
    2.000000000000D+00 0.000000000000D+00 5.122274160385D-09 3.400000000000D+01
    1.018500000000D+05 4.000000000000D+00
18 14  5 26  5 59 44.0 3.215651959181D-04 2.387423592154D-12 0.000000000000D+00
    6.000000000000D+00 6.375000000000D+00 5.172715464362D-09 1.620591356203D+00
    1.899898052216D-07 1.530382339843D-02 1.142919063568D-05 5.153704423904D+03
    1.079840000000D+05-3.278255462646D-07-6.612411120779D-01-2.291053533554D-07
    9.259410529101D-01 1.464687500000D+02-2.037896316230D+00-8.302131531388D-09
   -4.450185368083D-10 0.000000000000D+00 1.794000000000D+03 0.000000000000D+00
    2.000000000000D+00 0.000000000000D+00-1.117587089539D-08 6.000000000000D+00
    1.050600000000D+05 4.000000000000D+00
29 14  5 26  6  0  0.0 5.351905710995D-04 2.728484105319D-12 0.000000000000D+00
    3.000000000000D+01 3.225000000000D+01 4.453756945425D-09 2.770027391171D+00
    1.467764377594D-06 1.571335364133D-03 8.247792720795D-06 5.153700164795D+03
    1.080000000000D+05 3.166496753693D-08-2.694901434902D+00 8.009374141693D-08
    9.695675229277D-01 2.223750000000D+02-8.602900381446D-01-7.960688737497D-09
    6.360979246032D-10 0.000000000000D+00 1.794000000000D+03 0.000000000000D+00
    2.000000000000D+00 0.000000000000D+00-9.778887033463D-09 3.000000000000D+01
    1.068000000000D+05 4.000000000000D+00
 2 14  5 26  8  0  0.0 4.974771291018D-04 2.160049916711D-12 0.000000000000D+00
    3.200000000000D+01-1.765625000000D+01 5.718809639948D-09-4.364447444297D-01
   -6.724148988724D-07 1.355896424502D-02 4.952773451805D-06 5.153599403381D+03
    1.152000000000D+05 7.078051567078D-08-1.724102069120D+00 1.937150955200D-07
    9.389713212959D-01 2.743437500000D+02-2.422131530312D+00-8.769651005451D-09
   -8.857511808063D-11 0.000000000000D+00 1.794000000000D+03 0.000000000000D+00
    2.000000000000D+00 0.000000000000D+00-2.048909664154D-08 3.200000000000D+01
    1.080000000000D+05 4.000000000000D+00
 5 14  5 26  8  0  0.0-3.702961839736D-04 2.614797267597D-12 0.000000000000D+00
    7.900000000000D+01 6.687500000000D+00 4.779841956746D-09 1.923487207409D+00
    5.364418029785D-07 3.570928587578D-03 1.210719347000D-05 5.153607429504D+03
    1.152000000000D+05-7.823109626770D-08-6.560587072271D-01 8.568167686462D-08
    9.473813286579D-01 1.399687500000D+02 3.104001820764D-01-8.038906281285D-09
   -4.382325398586D-10 0.000000000000D+00 1.794000000000D+03 0.000000000000D+00
    2.000000000000D+00 0.000000000000D+00-1.024454832077D-08 7.900000000000D+01
    1.080000000000D+05 4.000000000000D+00
